FLOCK 3P-75             
1 41979U 17008AH  19299.89227502  .00004034  00000-0  16043-3 0  9999
2 41979  97.3975   5.8600 0009103  54.8707 305.3383 15.25818496149801
FLOCK 3P-70             
1 41980U 17008AJ  19299.89197905  .00003614  00000-0  14437-3 0  9992
2 41980  97.3976   5.8727 0009126  54.5841 305.6248 15.25744269149657
FLOCK 3P-73             
1 41981U 17008AK  19299.86505564  .00005686  00000-0  21812-3 0  9990
2 41981  97.3977   6.2124 0009014  53.6754 306.5315 15.26851342149808
FLOCK 3P-88             
1 41982U 17008AL  19299.88245734  .00004756  00000-0  18352-3 0  9995
2 41982  97.3975   6.2974 0008835  51.8151 308.3882 15.26738468148789
FLOCK 3P-85             
1 41983U 17008AM  19299.89801999  .00004818  00000-0  18744-3 0  9992
2 41983  97.3975   6.3026 0008859  55.4184 304.7890 15.26463285149682
FLOCK 3P-79             
1 41984U 17008AN  19299.74898986  .00001790  00000-0  73077-4 0  9996
2 41984  97.3971   5.7535 0009023  56.9386 303.2717 15.25680907149639
FLOCK 3P-86             
1 41985U 17008AP  19299.75155536  .00003350  00000-0  13429-3 0  9993
2 41985  97.3979   5.7539 0008898  56.6548 303.5541 15.25679366149622
FLOCK 3P-36             
1 41986U 17008AQ  19299.87975681  .00004099  00000-0  16298-3 0  9996
2 41986  97.3959   5.6602 0008677  54.1887 306.0156 15.25825380149130
FLOCK 3P-30             
1 41987U 17008AR  19299.87034342  .00004100  00000-0  16349-3 0  9997
2 41987  97.3955   5.6588 0008431  56.4799 303.7244 15.25725899149603
FLOCK 3P-34             
1 41988U 17008AS  19299.88635925  .00001872  00000-0  76228-4 0  9999
2 41988  97.3947   5.5869 0008654  51.9802 308.2216 15.25709018149130
FLOCK 3P-35             
1 41989U 17008AT  19299.86579093  .00001842  00000-0  73974-4 0  9993
2 41989  97.3945   5.7586 0008438  51.1859 309.0132 15.26200691149142
FLOCK 3P-33             
1 41990U 17008AU  19299.88800913  .00001383  00000-0  57268-4 0  9993
2 41990  97.3946   5.5855 0008525  53.5768 306.6255 15.25591672149133
LEMUR-2-JOBANPUTRA      
1 41991U 17008AV  19299.72960335  .00001765  00000-0  74726-4 0  9994
2 41991  97.3893   3.8453 0008927  59.1960 301.0155 15.24456200149024
LEMUR-2-SPIRE-MINIONS   
1 41992U 17008AW  19299.66535935  .00002252  00000-0  91613-4 0  9998
2 41992  97.3913   4.7903 0008628  57.4416 302.7655 15.25533671149070
LEMUR-2-SATCHMO         
1 41993U 17008AX  19299.75586047  .00001692  00000-0  71337-4 0  9997
2 41993  97.3892   4.1031 0008815  58.4047 301.8050 15.24654995149040
LEMUR-2-SMITA-SHARAD    
1 41994U 17008AY  19299.75962488  .00002798  00000-0  11328-3 0  9996
2 41994  97.3914   4.7811 0008654  56.6919 303.5146 15.25488206149087
LEMUR-2-RDEATON         
1 41995U 17008AZ  19299.72112169  .00001637  00000-0  68988-4 0  9993
2 41995  97.3895   4.1712 0010037  69.0463 291.1848 15.24718821149720
LEMUR-2-TACHIKOMA       
1 41996U 17008BA  19299.83749247  .00002433  00000-0  99182-4 0  9994
2 41996  97.3928   4.9690 0009816  67.8180 292.4098 15.25379789148992
LEMUR-2-NOGUECORREIG    
1 41997U 17008BB  19299.74103570  .00002778  00000-0  11209-3 0  9993
2 41997  97.3927   5.0819 0009798  67.8763 292.3515 15.25594795149083
LEMUR-2-MIA-GRACE       
1 41998U 17008BC  19299.77466179  .00001663  00000-0  70249-4 0  9996
2 41998  97.3893   4.0845 0009971  69.5473 290.6834 15.24610317148963
BGUSAT                  
1 41999U 17008BD  19299.74818720  .00003635  00000-0  14175-3 0  9993
2 41999  97.3955   5.9451 0009556  66.1682 294.0557 15.26541870149139
DIDO-2                  
1 42000U 17008BE  19299.75401848  .00001270  00000-0  55187-4 0  9999
2 42000  97.3876   3.5604 0010071  71.2509 288.9820 15.24083348149019
FLOCK 3P-49             
1 42001U 17008BF  19299.72954041  .00002165  00000-0  87612-4 0  9997
2 42001  97.3947   5.5009 0009486  68.1006 292.1240 15.25750454149636
FLOCK 3P-67             
1 42002U 17008BG  19299.84507931  .00004572  00000-0  17537-3 0  9995
2 42002  97.3948   6.2149 0008914  65.0158 295.2006 15.26957127149855
FLOCK 3P-68             
1 42003U 17008BH  19299.87394203  .00001842  00000-0  75115-4 0  9999
2 42003  97.3943   5.5723 0009470  65.7492 294.4735 15.25680185149459
FLOCK 3P-41             
1 42004U 17008BJ  19299.90067651  .00004556  00000-0  17460-3 0  9991
2 42004  97.3939   6.1172 0008894  66.1963 294.0207 15.26991701149693
FLOCK 3P-45             
1 42005U 17008BK  19299.89390283  .00004559  00000-0  17463-3 0  9996
2 42005  97.3957   6.3260 0008891  67.1643 293.0534 15.27003897149869
FLOCK 3P-48             
1 42006U 17008BL  19299.86680094  .00004109  00000-0  16369-3 0  9991
2 42006  97.3959   5.6639 0009035  69.2947 290.9258 15.25754810149590
FLOCK 3P-43             
1 42007U 17008BM  19299.83790348  .00004213  00000-0  16535-3 0  9994
2 42007  97.3966   5.7095 0008859  69.2263 290.9923 15.26243457149815
FLOCK 3P-42             
1 42008U 17008BN  19299.86310706  .00002191  00000-0  88776-4 0  9994
2 42008  97.3944   5.5772 0009236  68.4315 291.7906 15.25686698149739
FLOCK 3P-61             
1 42009U 17008BP  19299.86098805  .00001984  00000-0  80613-4 0  9999
2 42009  97.3947   5.6061 0009198  69.8761 290.3466 15.25708181149785
FLOCK 3P-40             
1 42010U 17008BQ  19299.79109694  .00001454  00000-0  59846-4 0  9998
2 42010  97.3937   5.4588 0009154  72.2871 287.9366 15.25703947149034
FLOCK 3P-16             
1 42011U 17008BR  19299.87278610  .00004187  00000-0  16722-3 0  9994
2 42011  97.3942   5.4991 0008738  71.9733 288.2456 15.25659187148982
FLOCK 3P-14             
1 42012U 17008BS  19299.72602251  .00001558  00000-0  63855-4 0  9990
2 42012  97.3957   5.7051 0008860  74.1128 286.1086 15.25749527149590
FLOCK 3P-53             
1 42013U 17008BT  19299.88925085  .00003083  00000-0  12147-3 0  9993
2 42013  97.3951   5.7834 0008628  72.3018 287.9162 15.26317811149620
FLOCK 3P-54             
1 42014U 17008BU  19299.85530440  .00001969  00000-0  79984-4 0  9992
2 42014  97.3941   5.5603 0008758  73.1132 287.1065 15.25724400149812
PEASSS                  
1 42015U 17008BV  19299.83077027  .00001689  00000-0  70333-4 0  9996
2 42015  97.3889   4.8015 0007970  75.7982 284.4141 15.25096503149584
AL-FARABI 1             
1 42016U 17008BW  19299.77332411  .00002059  00000-0  83388-4 0  9997
2 42016  97.3906   5.4428 0007814  75.8482 284.3624 15.25791636149734
NAYIF-1 (EO-88)         
1 42017U 17008BX  19299.75791247  .00002079  00000-0  84053-4 0  9994
2 42017  97.3902   5.4383 0007847  75.7454 284.4655 15.25827503149755
FLOCK 3P-23             
1 42018U 17008BY  19299.72009839  .00001733  00000-0  70763-4 0  9990
2 42018  97.3934   5.2166 0009446  50.1930 310.0138 15.25714416148558
FLOCK 3P-76             
1 42019U 17008BZ  19299.69161854  .00001610  00000-0  65981-4 0  9993
2 42019  97.3976   5.7238 0009341  55.7074 304.5047 15.25694663149610
FLOCK 3P-69             
1 42020U 17008CA  19299.79990697  .00003695  00000-0  14658-3 0  9990
2 42020  97.3981   5.8659 0008937  54.9428 305.2647 15.25965896148522
FLOCK 3P-84             
1 42021U 17008CB  19299.88750496  .00004488  00000-0  17796-3 0  9999
2 42021  97.3974   5.8455 0009327  54.7048 305.5061 15.25859990149654
FLOCK 3P-59             
1 42022U 17008CC  19299.89344138  .00004692  00000-0  18021-3 0  9992
2 42022  97.3950   6.1433 0008496  53.1099 307.0917 15.26907580148717
FLOCK 3P-32             
1 42023U 17008CD  19299.76251168  .00002216  00000-0  89556-4 0  9991
2 42023  97.3942   5.4203 0008959  52.1007 308.1040 15.25773158149797
FLOCK 3P-71             
1 42024U 17008CE  19299.84627138  .00004843  00000-0  18529-3 0  9994
2 42024  97.3954   6.2755 0008853  55.2536 304.9535 15.27016639148716
FLOCK 3P-77             
1 42025U 17008CF  19299.75033869  .00001803  00000-0  73410-4 0  9991
2 42025  97.3974   5.7566 0009155  56.1480 304.0628 15.25767330149632
FLOCK 3P-80             
1 42026U 17008CG  19299.72788889  .00001758  00000-0  71725-4 0  9994
2 42026  97.3969   5.7651 0008840  56.9549 303.2537 15.25718461147770
FLOCK 3P-66             
1 42027U 17008CH  19299.61083371  .00001861  00000-0  75837-4 0  9990
2 42027  97.3945   5.3514 0009484  66.6949 293.5287 15.25692952149722
FLOCK 3P-65             
1 42028U 17008CJ  19299.67549993  .00002044  00000-0  83001-4 0  9990
2 42028  97.3950   5.4352 0009310  66.9429 293.2790 15.25695349149633
FLOCK 3P-50             
1 42029U 17008CK  19299.73673666  .00001708  00000-0  69830-4 0  9993
2 42029  97.3954   5.5423 0009266  68.3210 291.9014 15.25699637148965
FLOCK 3P-52             
1 42030U 17008CL  19299.67255695  .00001479  00000-0  60846-4 0  9999
2 42030  97.3950   5.4286 0009301  68.7089 291.5141 15.25683087149721
FLOCK 3P-46             
1 42031U 17008CM  19299.66772609  .00001540  00000-0  63223-4 0  9999
2 42031  97.3942   5.3713 0009223  68.6416 291.5805 15.25690980149786
FLOCK 3P-47             
1 42032U 17008CN  19299.86504346  .00002009  00000-0  81623-4 0  9998
2 42032  97.3942   5.5632 0009229  68.3820 291.8400 15.25694107149634
FLOCK 3P-44             
1 42033U 17008CP  19299.88680556  .00004955  00000-0  19694-3 0  9999
2 42033  97.3950   5.4572 0008978  72.3448 287.8770 15.25726255148372
FLOCK 3P-64             
1 42034U 17008CQ  19299.72821849  .00001661  00000-0  67942-4 0  9996
2 42034  97.3942   5.4361 0009099  71.8054 288.4174 15.25712775149785
FLOCK 3P-63             
1 42035U 17008CR  19299.77459727  .00004047  00000-0  16011-3 0  9995
2 42035  97.3944   5.4925 0009193  71.1120 289.1115 15.25991868147767
FLOCK 3P-62             
1 42036U 17008CS  19299.89716190  .00004897  00000-0  18689-3 0  9995
2 42036  97.3955   6.4385 0008885  69.9984 290.2211 15.27093111149039
FLOCK 3P-38             
1 42037U 17008CT  19299.84550087  .00004660  00000-0  18092-3 0  9998
2 42037  97.3949   5.8907 0008543  70.3253 289.8907 15.26547094149772
FLOCK 3P-39             
1 42038U 17008CU  19299.84718463  .00001794  00000-0  73152-4 0  9997
2 42038  97.3936   5.5092 0008986  71.9430 288.2786 15.25722977149701
